start=new Date('2022-12-12T00:00:00.000Z').valueOf();
sats=[{"ARG_OF_PERICENTER":"42.2796","REV_AT_EPOCH":"1059","RCS_SIZE":"LARGE","MEAN_ANOMALY":"317.8356","RA_OF_ASC_NODE":"138.8909","PERIOD":"95.438","COUNTRY_CODE":"US","NORAD_CAT_ID":"53966","MEAN_MOTION_DOT":"0.00000373","SEMIMAJOR_AXIS":"6917.889","CLASSIFICATION_TYPE":"U","OBJECT_TYPE":"PAYLOAD","MEAN_ELEMENT_THEORY":"SGP4","FILE":"3691993","DECAY_DATE":null,"MEAN_MOTION_DDOT":"0.0000000000000","LAUNCH_DATE":"2022-10-05","BSTAR":"0.00004151700000","EPOCH":"2022-12-11T19:09:12.773664","GP_ID":"220101134","REF_FRAME":"TEME","INCLINATION":"53.2175","CENTER_NAME":"EARTH","PERIAPSIS":"538.316","ECCENTRICITY":"0.00020790","OBJECT_NAME":"STARLINK-4635","TLE_LINE2":"2 53966  53.2175 138.8909 0002079  42.2796 317.8356 15.08837105 10596","SITE":"AFWTR","MEAN_MOTION":"15.08837105","APOAPSIS":"541.192","ELEMENT_SET_NO":"999","EPHEMERIS_TYPE":"0","OBJECT_ID":"2022-125C","TIME_SYSTEM":"UTC","TLE_LINE1":"1 53966U 22125C   22345.79806451  .00000373  00000-0  41517-4 0  9992"},{"MEAN_MOTION":"15.08835248","APOAPSIS":"541.202","ELEMENT_SET_NO":"999","EPHEMERIS_TYPE":"0","TLE_LINE2":"2 53967  53.2170 139.1646 0002085  60.3516 299.7684 15.08835248 10589","SITE":"AFWTR","OBJECT_ID":"2022-125D","TIME_SYSTEM":"UTC","TLE_LINE1":"1 53967U 22125D   22345.72814166  .00000492  00000-0  49047-4 0  9996","CENTER_NAME":"EARTH","REF_FRAME":"TEME","INCLINATION":"53.2170","OBJECT_NAME":"STARLINK-4634","PERIAPSIS":"538.318","ECCENTRICITY":"0.00020850","MEAN_ELEMENT_THEORY":"SGP4","FILE":"3691993","DECAY_DATE":null,"SEMIMAJOR_AXIS":"6917.895","CLASSIFICATION_TYPE":"U","OBJECT_TYPE":"PAYLOAD","MEAN_MOTION_DDOT":"0.0000000000000","LAUNCH_DATE":"2022-10-05","BSTAR":"0.00004904700000","EPOCH":"2022-12-11T17:28:31.439424","GP_ID":"220099882","MEAN_ANOMALY":"299.7684","REV_AT_EPOCH":"1058","ARG_OF_PERICENTER":"60.3516","RCS_SIZE":"LARGE","COUNTRY_CODE":"US","PERIOD":"95.438","NORAD_CAT_ID":"53967","MEAN_MOTION_DOT":"0.00000492","RA_OF_ASC_NODE":"139.1646"},{"INCLINATION":"53.2170","REF_FRAME":"TEME","CENTER_NAME":"EARTH","ECCENTRICITY":"0.00016220","PERIAPSIS":"538.621","OBJECT_NAME":"STARLINK-4629","SITE":"AFWTR","TLE_LINE2":"2 53968  53.2170 138.4991 0001622  63.9334 296.1825 15.08840753 10606","APOAPSIS":"540.865","ELEMENT_SET_NO":"999","MEAN_MOTION":"15.08840753","EPHEMERIS_TYPE":"0","TIME_SYSTEM":"UTC","OBJECT_ID":"2022-125E","TLE_LINE1":"1 53968U 22125E   22345.84955927  .00000322  00000-0  38332-4 0  9998","REV_AT_EPOCH":"1060","ARG_OF_PERICENTER":"63.9334","RCS_SIZE":"LARGE","MEAN_ANOMALY":"296.1825","RA_OF_ASC_NODE":"138.4991","PERIOD":"95.438","COUNTRY_CODE":"US","MEAN_MOTION_DOT":"0.00000322","NORAD_CAT_ID":"53968","SEMIMAJOR_AXIS":"6917.878","CLASSIFICATION_TYPE":"U","OBJECT_TYPE":"PAYLOAD","MEAN_ELEMENT_THEORY":"SGP4","DECAY_DATE":null,"FILE":"3691993","LAUNCH_DATE":"2022-10-05","EPOCH":"2022-12-11T20:23:21.920928","MEAN_MOTION_DDOT":"0.0000000000000","BSTAR":"0.00003833200000","GP_ID":"220099633"},{"OBJECT_NAME":"STARLINK-4468","PERIAPSIS":"538.435","ECCENTRICITY":"0.00018890","CENTER_NAME":"EARTH","REF_FRAME":"TEME","INCLINATION":"53.2172","TLE_LINE1":"1 53969U 22125F   22345.85693701  .00000280  00000-0  35666-4 0  9999","OBJECT_ID":"2022-125F","TIME_SYSTEM":"UTC","EPHEMERIS_TYPE":"0","MEAN_MOTION":"15.08841227","ELEMENT_SET_NO":"999","APOAPSIS":"541.048","TLE_LINE2":"2 53969  53.2172 138.5453 0001889  51.0485 309.0675 15.08841227 10607","SITE":"AFWTR","MEAN_MOTION_DOT":"0.00000280","NORAD_CAT_ID":"53969","PERIOD":"95.437","COUNTRY_CODE":"US","RA_OF_ASC_NODE":"138.5453","MEAN_ANOMALY":"309.0675","RCS_SIZE":"LARGE","REV_AT_EPOCH":"1060","ARG_OF_PERICENTER":"51.0485","GP_ID":"220100884","LAUNCH_DATE":"2022-10-05","BSTAR":"0.00003566600000","MEAN_MOTION_DDOT":"0.0000000000000","EPOCH":"2022-12-11T20:33:59.357664","FILE":"3691993","DECAY_DATE":null,"MEAN_ELEMENT_THEORY":"SGP4","OBJECT_TYPE":"PAYLOAD","SEMIMAJOR_AXIS":"6917.877","CLASSIFICATION_TYPE":"U"},{"CENTER_NAME":"EARTH","REF_FRAME":"TEME","INCLINATION":"53.2158","OBJECT_NAME":"STARLINK-4567","ECCENTRICITY":"0.00012050","PERIAPSIS":"538.886","MEAN_MOTION":"15.08848412","ELEMENT_SET_NO":"999","APOAPSIS":"540.553","EPHEMERIS_TYPE":"0","TLE_LINE2":"2 53970  53.2158 134.6773 0001205  73.5635 286.5489 15.08848412 10642","SITE":"AFWTR","OBJECT_ID":"2022-125G","TIME_SYSTEM":"UTC","TLE_LINE1":"1 53970U 22125G   22345.69462957  .00002071  00000-0  14816-3 0  9993","MEAN_ANOMALY":"286.5489","REV_AT_EPOCH":"1064","ARG_OF_PERICENTER":"73.5635","RCS_SIZE":"LARGE","COUNTRY_CODE":"US","PERIOD":"95.437","NORAD_CAT_ID":"53970","MEAN_MOTION_DOT":"0.00002071","RA_OF_ASC_NODE":"134.6773","MEAN_ELEMENT_THEORY":"SGP4","FILE":"3691993","DECAY_DATE":null,"CLASSIFICATION_TYPE":"U","SEMIMAJOR_AXIS":"6917.855","OBJECT_TYPE":"PAYLOAD","LAUNCH_DATE":"2022-10-05","EPOCH":"2022-12-11T16:40:15.994848","MEAN_MOTION_DDOT":"0.0000000000000","BSTAR":"0.00014816000000","GP_ID":"220100635"},{"TLE_LINE2":"2 53971  53.2164 138.8185 0001985  53.5671 306.5504 15.08843194 10661","SITE":"AFWTR","MEAN_MOTION":"15.08843194","APOAPSIS":"541.109","ELEMENT_SET_NO":"999","EPHEMERIS_TYPE":"0","OBJECT_ID":"2022-125H","TIME_SYSTEM":"UTC","TLE_LINE1":"1 53971U 22125H   22345.78701189  .00004943  00000-0  32843-3 0  9997","REF_FRAME":"TEME","INCLINATION":"53.2164","CENTER_NAME":"EARTH","PERIAPSIS":"538.362","ECCENTRICITY":"0.00019850","OBJECT_NAME":"STARLINK-4639","CLASSIFICATION_TYPE":"U","SEMIMAJOR_AXIS":"6917.871","OBJECT_TYPE":"PAYLOAD","MEAN_ELEMENT_THEORY":"SGP4","FILE":"3691269","DECAY_DATE":null,"MEAN_MOTION_DDOT":"0.0000000000000","LAUNCH_DATE":"2022-10-05","EPOCH":"2022-12-11T18:53:17.827296","BSTAR":"0.00032843000000","GP_ID":"220057347","ARG_OF_PERICENTER":"53.5671","REV_AT_EPOCH":"1066","RCS_SIZE":"LARGE","MEAN_ANOMALY":"306.5504","RA_OF_ASC_NODE":"138.8185","PERIOD":"95.437","COUNTRY_CODE":"US","MEAN_MOTION_DOT":"0.00004943","NORAD_CAT_ID":"53971"},{"INCLINATION":"53.2150","REF_FRAME":"TEME","CENTER_NAME":"EARTH","ECCENTRICITY":"0.00012690","PERIAPSIS":"538.829","OBJECT_NAME":"STARLINK-5157","TLE_LINE2":"2 53972  53.2150 134.5393 0001269  75.3913 284.7220 15.08852763 10649","SITE":"AFWTR","APOAPSIS":"540.584","ELEMENT_SET_NO":"999","MEAN_MOTION":"15.08852763","EPHEMERIS_TYPE":"0","TIME_SYSTEM":"UTC","OBJECT_ID":"2022-125J","TLE_LINE1":"1 53972U 22125J   22345.67252518  .00001946  00000-0  14029-3 0  9999","ARG_OF_PERICENTER":"75.3913","REV_AT_EPOCH":"1064","RCS_SIZE":"LARGE","MEAN_ANOMALY":"284.7220","RA_OF_ASC_NODE":"134.5393","PERIOD":"95.437","COUNTRY_CODE":"US","MEAN_MOTION_DOT":"0.00001946","NORAD_CAT_ID":"53972","CLASSIFICATION_TYPE":"U","SEMIMAJOR_AXIS":"6917.841","OBJECT_TYPE":"PAYLOAD","MEAN_ELEMENT_THEORY":"SGP4","DECAY_DATE":null,"FILE":"3691993","EPOCH":"2022-12-11T16:08:26.175552","LAUNCH_DATE":"2022-10-05","MEAN_MOTION_DDOT":"0.0000000000000","BSTAR":"0.00014029000000","GP_ID":"220100133"},{"MEAN_ELEMENT_THEORY":"SGP4","DECAY_DATE":null,"FILE":"3691993","CLASSIFICATION_TYPE":"U","SEMIMAJOR_AXIS":"6917.883","OBJECT_TYPE":"PAYLOAD","EPOCH":"2022-12-11T18:42:40.869216","LAUNCH_DATE":"2022-10-05","MEAN_MOTION_DDOT":"0.0000000000000","BSTAR":"0.00006896200000","GP_ID":"220100385","MEAN_ANOMALY":"296.8946","REV_AT_EPOCH":"1059","ARG_OF_PERICENTER":"63.2194","RCS_SIZE":"LARGE","COUNTRY_CODE":"US","PERIOD":"95.438","MEAN_MOTION_DOT":"0.00000810","NORAD_CAT_ID":"53973","RA_OF_ASC_NODE":"138.7715","ELEMENT_SET_NO":"999","APOAPSIS":"540.746","MEAN_MOTION":"15.08839208","EPHEMERIS_TYPE":"0","SITE":"AFWTR","TLE_LINE2":"2 53973  53.2178 138.7715 0001443  63.2194 296.8946 15.08839208 10597","TIME_SYSTEM":"UTC","OBJECT_ID":"2022-125K","TLE_LINE1":"1 53973U 22125K   22345.77963969  .00000810  00000-0  68962-4 0  9995","CENTER_NAME":"EARTH","INCLINATION":"53.2178","REF_FRAME":"TEME","OBJECT_NAME":"STARLINK-5156","PERIAPSIS":"538.750","ECCENTRICITY":"0.00014430"},{"MEAN_MOTION":"15.49904787","ELEMENT_SET_NO":"999","APOAPSIS":"418.431","EPHEMERIS_TYPE":"0","SITE":"AFWTR","TLE_LINE2":"2 53974  53.2130 121.4954 0002096  23.3340 121.7160 15.49904787 10915","OBJECT_ID":"2022-125L","TIME_SYSTEM":"UTC","TLE_LINE1":"1 53974U 22125L   22345.91668981  .00025941  00000-0  46315-3 0  9997","CENTER_NAME":"EARTH","REF_FRAME":"TEME","INCLINATION":"53.2130","OBJECT_NAME":"STARLINK-5159","PERIAPSIS":"415.582","ECCENTRICITY":"0.00020960","MEAN_ELEMENT_THEORY":"SGP4","FILE":"3691267","DECAY_DATE":null,"CLASSIFICATION_TYPE":"U","SEMIMAJOR_AXIS":"6795.141","OBJECT_TYPE":"PAYLOAD","LAUNCH_DATE":"2022-10-05","MEAN_MOTION_DDOT":"0.0000000000000","EPOCH":"2022-12-11T22:00:01.999584","BSTAR":"0.00046315000000","GP_ID":"220057213","MEAN_ANOMALY":"121.7160","ARG_OF_PERICENTER":"23.3340","REV_AT_EPOCH":"1091","RCS_SIZE":"LARGE","COUNTRY_CODE":"US","PERIOD":"92.909","NORAD_CAT_ID":"53974","MEAN_MOTION_DOT":"0.00025941","RA_OF_ASC_NODE":"121.4954"},{"REF_FRAME":"TEME","INCLINATION":"53.2160","CENTER_NAME":"EARTH","PERIAPSIS":"538.035","ECCENTRICITY":"0.00024700","OBJECT_NAME":"STARLINK-5137","SITE":"AFWTR","TLE_LINE2":"2 53975  53.2160 134.3118 0002470  44.0247 316.0941 15.08840600 10729","EPHEMERIS_TYPE":"0","MEAN_MOTION":"15.08840600","ELEMENT_SET_NO":"999","APOAPSIS":"541.452","TLE_LINE1":"1 53975U 22125M   22345.74982360 -.00000129  00000-0  10039-4 0  9996","OBJECT_ID":"2022-125M","TIME_SYSTEM":"UTC","RCS_SIZE":"LARGE","ARG_OF_PERICENTER":"44.0247","REV_AT_EPOCH":"1072","MEAN_ANOMALY":"316.0941","RA_OF_ASC_NODE":"134.3118","MEAN_MOTION_DOT":"-0.00000129","NORAD_CAT_ID":"53975","PERIOD":"95.438","COUNTRY_CODE":"US","OBJECT_TYPE":"PAYLOAD","SEMIMAJOR_AXIS":"6917.879","CLASSIFICATION_TYPE":"U","FILE":"3691267","DECAY_DATE":null,"MEAN_ELEMENT_THEORY":"SGP4","GP_ID":"220057359","MEAN_MOTION_DDOT":"0.0000000000000","LAUNCH_DATE":"2022-10-05","BSTAR":"0.00001003900000","EPOCH":"2022-12-11T17:59:44.759040"}];
